ONEWEB-0349             
1 49281U 21090C   24235.52250855 -.00000281  00000+0 -72378-3 0  9996
2 49281  87.9195  46.4605 0001719  88.1485 271.9845 13.20770458142226
ONEWEB-0353             
1 49282U 21090D   24235.53973483 -.00000099  00000+0 -30113-3 0  9995
2 49282  87.8922  61.7033 0001456  85.7509 274.3787 13.14503873140393
ONEWEB-0356             
1 49283U 21090E   24235.52094811  .00000069  00000+0  13798-3 0  9999
2 49283  87.9195  46.4547 0002248  67.3074 292.8297 13.20772051142228
ONEWEB-0358             
1 49284U 21090F   24235.47517794  .00000036  00000+0  55998-4 0  9997
2 49284  87.9195  46.4507 0002032  84.5433 275.5932 13.20769434142940
ONEWEB-0359             
1 49285U 21090G   24235.54777951  .00000002  00000+0 -27614-4 0  9997
2 49285  87.9193  46.4537 0002201  98.8025 261.3358 13.20774292142937
ONEWEB-0360             
1 49286U 21090H   24235.53830705  .00000020  00000+0  17170-4 0  9999
2 49286  87.9193  46.4606 0001850  93.1304 267.0041 13.20772880142249
ONEWEB-0361             
1 49287U 21090J   24235.51936448  .00000062  00000+0  12106-3 0  9998
2 49287  87.9194  46.4590 0001759  86.4217 273.7117 13.20773004142695
ONEWEB-0362             
1 49288U 21090K   24235.55282300 -.00000002  00000+0 -36438-4 0  9995
2 49288  87.9097  77.0125 0001669  97.4996 262.6326 13.19728813139385
